[{"OBJECT_NAME":"STARLINK-30201","OBJECT_ID":"2023-096M","EPOCH":"2026-03-09T22:00:01.999584","MEAN_MOTION":15.15735537,"ECCENTRICITY":0.00012732,"INCLINATION":43.0006,"RA_OF_ASC_NODE":221.3396,"ARG_OF_PERICENTER":317.2195,"MEAN_ANOMALY":216.3759,"EPHEMERIS_TYPE":0,"CLASSIFICATION_TYPE":"U","NORAD_CAT_ID":57301,"ELEMENT_SET_NO":999,"REV_AT_EPOCH":572,"BSTAR":0.0062653027,"MEAN_MOTION_DOT":0.00123499,"MEAN_MOTION_DDOT":0},{"OBJECT_NAME":"SITRO-AIS-57","OBJECT_ID":"2025-313J","EPOCH":"2026-03-09T21:19:15.458304","MEAN_MOTION":15.21278824,"ECCENTRICITY":0.00157719,"INCLINATION":97.3995,"RA_OF_ASC_NODE":145.0956,"ARG_OF_PERICENTER":356.0145,"MEAN_ANOMALY":4.0962,"EPHEMERIS_TYPE":0,"CLASSIFICATION_TYPE":"U","NORAD_CAT_ID":67256,"ELEMENT_SET_NO":999,"REV_AT_EPOCH":1084,"BSTAR":0.00055394677,"MEAN_MOTION_DOT":0.00012366,"MEAN_MOTION_DDOT":0}]
